trilat,trilong,ssid,qos,transid,firsttime,lasttime,lastupdt,netid,name,type,comment,wep,bcninterval,freenet,dhcp,paynet,userfound,channel,rcois,encryption,country,region,road,city,housenumber,postalcode
50.81539536,15.75288105,My BMW Hotspot 5216,0,20240712-00000,2024-07-12T11:00:00.000Z,2024-07-12T06:00:00.000Z,2024-07-12T06:00:00.000Z,00:13:1E:70:12:A5,,infra,,2,0,?,?,?,True,1,0,wpa2,PL,województwo dolnośląskie,366,Miłków,,58-535
50.82269287,15.77707767,AUTO BOX88,0,20240710-00000,2024-07-08T15:00:00.000Z,2024-07-10T09:00:00.000Z,2024-07-10T10:00:00.000Z,00:E0:4C:24:77:66,,infra,,2,0,?,?,?,False,40,0,wpa2,PL,województwo dolnośląskie,,Mysłakowice,,58-535
50.81547928,15.67519951,AutoKit_8F,0,20240712-00000,2024-07-09T12:00:00.000Z,2024-07-12T06:00:00.000Z,2024-07-12T06:00:00.000Z,00:E0:4C:C5:C3:D0,,infra,,2,0,?,?,?,True,36,0,wpa2,PL,województwo dolnośląskie,Żołnierska,,72,58-562
50.80076218,15.83245277,MERCUSYS_6912,0,20240712-00000,2024-07-12T11:00:00.000Z,2024-07-12T06:00:00.000Z,2024-07-12T06:00:00.000Z,00:EB:D8:3A:69:12,,infra,,2,0,?,?,?,True,3,0,wpa2,PL,województwo dolnośląskie,Zamkowa,,2a,58-530
50.7858429,15.77822018,HUAWEI_B535_8558,0,20240710-00000,2024-07-08T15:00:00.000Z,2024-07-10T09:00:00.000Z,2024-07-10T10:00:00.000Z,02:F9:5C:58:85:79,,infra,,2,0,?,?,?,False,3,0,wpa2,PL,województwo dolnośląskie,,Ścięgny,,58-534
50.7883873,15.77026081,INTERNET,2,20240711-00000,2024-07-11T09:00:00.000Z,2024-07-31T08:00:00.000Z,2024-07-31T09:00:00.000Z,04:79:70:6C:1A:70,,infra,,2,0,?,?,?,False,5,0,wpa2,PL,województwo dolnośląskie,Turystyczna,Ścięgny,,58-534
50.79940414,15.82729912,,4,20240711-00000,2024-07-11T09:00:00.000Z,2024-07-31T08:00:00.000Z,2024-07-31T09:00:00.000Z,06:34:AF:A6:6E:96,,infra,,2,0,?,?,?,False,36,0,wpa2,PL,województwo dolnośląskie,Karkonoska,,1a,58-530
50.77981186,15.73561954,Wifi_SWEQ3A4C7H,0,20240711-00000,2024-07-11T09:00:00.000Z,2024-07-11T09:00:00.000Z,2024-07-11T09:00:00.000Z,06:78:63:BA:99:CF,,infra,,?,0,?,?,?,False,7,0,unknown,PL,województwo dolnośląskie,Myśliwska,,19,58-540
50.81556702,15.67532825,HUAWEI Y3 2017,0,20240704-00000,2024-07-04T13:00:00.000Z,2024-07-04T18:00:00.000Z,2024-07-04T18:00:00.000Z,06:79:70:2B:4E:AA,,infra,,2,0,?,?,?,True,1,0,wpa2,PL,województwo dolnośląskie,Żołnierska,,72,58-562
50.80083847,15.83236504,Pogotowie,0,20240712-00000,2024-07-12T11:00:00.000Z,2024-07-12T06:00:00.000Z,2024-07-12T06:00:00.000Z,08:26:97:C4:2B:2B,,infra,,2,0,?,?,?,True,12,0,wpa2,PL,województwo dolnośląskie,Zamkowa,,2a,58-530
50.80076218,15.83245277,Pogotowie,0,20240712-00000,2024-07-12T11:00:00.000Z,2024-07-12T06:00:00.000Z,2024-07-12T06:00:00.000Z,08:26:97:C4:2B:2C,,infra,,2,0,?,?,?,True,36,0,wpa2,PL,województwo dolnośląskie,Zamkowa,,2a,58-530
50.78274536,15.76144028,Wieslaw,2,20240711-00000,2024-07-11T09:00:00.000Z,2024-07-31T08:00:00.000Z,2024-07-31T09:00:00.000Z,08:79:8C:8E:C0:54,,infra,,2,0,?,?,?,False,3,0,wpa2,PL,województwo dolnośląskie,Kolejowa,,4,58-540
50.80051804,15.77435875,DTUP-A006302F,2,20240710-00000,2024-07-08T15:00:00.000Z,2024-07-31T08:00:00.000Z,2024-07-31T09:00:00.000Z,0A:F9:E0:43:B3:E0,,infra,,?,0,?,?,?,False,10,0,unknown,PL,województwo dolnośląskie,366,Ścięgny,,58-534
50.82450485,15.68615627,PLAY Internet 4G LTE-F2CF,2,20240712-00000,2024-07-12T11:00:00.000Z,2024-07-31T08:00:00.000Z,2024-07-31T09:00:00.000Z,0C:D6:BD:EE:F2:CF,,infra,,2,0,?,?,?,True,1,0,wpa2,PL,województwo dolnośląskie,Żołnierska,,89,58-562
50.81561661,15.67512608,HONOR X6a,0,20240704-00000,2024-07-04T12:00:00.000Z,2024-07-04T18:00:00.000Z,2024-07-04T18:00:00.000Z,0E:DF:D1:D3:1C:03,,infra,,2,0,?,?,?,True,6,0,wpa2,PL,województwo dolnośląskie,Żołnierska,,72,58-562
50.80272293,15.83723831,ZTE_24F3A1,0,20240711-00000,2024-07-11T09:00:00.000Z,2024-07-11T09:00:00.000Z,2024-07-11T09:00:00.000Z,10:3C:59:24:F3:A1,,infra,,3,0,?,?,?,False,1,0,wpa3,PL,województwo dolnośląskie,Zamkowa,,15,58-530
50.79954147,15.82799435,MF286_CB3381,2,20240712-00000,2024-07-12T11:00:00.000Z,2024-07-31T08:00:00.000Z,2024-07-31T09:00:00.000Z,10:3C:59:CB:33:81,,infra,,2,0,?,?,?,True,1,0,wpa2,PL,województwo dolnośląskie,Ogrodowa,,2,58-530
50.79283142,15.77974319,HUAWEI_H122_B65A,0,20240711-00000,2024-07-11T09:00:00.000Z,2024-07-11T09:00:00.000Z,2024-07-11T09:00:00.000Z,14:77:40:03:B6:5E,,infra,,2,0,?,?,?,False,36,0,wpa2,PL,województwo dolnośląskie,Turystyczna,Ścięgny,,58-534
50.79283142,15.77974319,,0,20240711-00000,2024-07-11T09:00:00.000Z,2024-07-11T09:00:00.000Z,2024-07-11T09:00:00.000Z,14:77:40:03:B6:5F,,infra,,2,0,?,?,?,False,11,0,wpa2,PL,województwo dolnośląskie,Turystyczna,Ścięgny,,58-534
50.79283142,15.77974319,HUAWEI_H122_B65A_5G,0,20240711-00000,2024-07-11T09:00:00.000Z,2024-07-11T09:00:00.000Z,2024-07-11T09:00:00.000Z,14:77:40:03:B6:61,,infra,,2,0,?,?,?,False,36,0,wpa2,PL,województwo dolnośląskie,Turystyczna,Ścięgny,,58-534
50.79987335,15.83324051,,0,20240712-00000,2024-07-12T11:00:00.000Z,2024-07-12T06:00:00.000Z,2024-07-12T06:00:00.000Z,16:49:BC:59:F2:88,,infra,,2,0,?,?,?,True,6,0,wpa2,PL,województwo dolnośląskie,Zamkowa,,2a,58-530
50.7815094,15.74378872,HOTEL_DZIKI_POTOK_RPT,0,20240711-00000,2024-07-11T09:00:00.000Z,2024-07-11T09:00:00.000Z,2024-07-11T09:00:00.000Z,18:31:BF:9D:80:F6,,infra,,?,0,?,?,?,False,11,0,unknown,PL,województwo dolnośląskie,Myśliwska,,11,58-540
50.79911041,15.82628345,PLAY_Swiatlowodowy_6E92,4,20240711-00000,2024-07-11T09:00:00.000Z,2024-07-31T08:00:00.000Z,2024-07-31T09:00:00.000Z,18:34:AF:A6:6E:94,,infra,,2,0,?,?,?,False,6,0,wpa2,PL,województwo dolnośląskie,Karkonoska,,4,58-530
50.79937363,15.82717228,PLAY_Swiatlowodowy_6E92_5G,4,20240711-00000,2024-07-11T09:00:00.000Z,2024-07-31T08:00:00.000Z,2024-07-31T09:00:00.000Z,18:34:AF:A6:6E:95,,infra,,2,0,?,?,?,False,36,0,wpa2,PL,województwo dolnośląskie,Karkonoska,,1a,58-530
50.79476929,15.81885433,HP-Print-2A-LaserJet Pro MFP,0,20240712-00000,2024-07-12T11:00:00.000Z,2024-07-12T06:00:00.000Z,2024-07-12T06:00:00.000Z,18:4F:32:4F:7A:2A,,infra,,2,0,?,?,?,True,6,0,wpa2,PL,województwo dolnośląskie,Karkonoska,,14/1,58-530
50.7905159,15.77405834,Jula,2,20240711-00000,2024-07-11T09:00:00.000Z,2024-07-31T08:00:00.000Z,2024-07-31T09:00:00.000Z,18:D6:C7:97:AB:A0,,infra,,2,0,?,?,?,False,5,0,wpa2,PL,województwo dolnośląskie,Turystyczna,Ścięgny,,58-534
50.78147125,15.74403954,Olaf,0,20240711-00000,2024-07-11T09:00:00.000Z,2024-07-11T09:00:00.000Z,2024-07-11T09:00:00.000Z,18:FD:74:44:04:09,,infra,,2,0,?,?,?,False,4,0,wpa2,PL,województwo dolnośląskie,Myśliwska,,11,58-540
50.81561661,15.67519379,My Skoda 5670,0,20240704-00000,2024-07-04T12:00:00.000Z,2024-07-04T18:00:00.000Z,2024-07-04T18:00:00.000Z,1A:48:CA:97:BC:5D,,infra,,2,0,?,?,?,True,153,0,wpa2,PL,województwo dolnośląskie,Żołnierska,,72,58-562
50.78679657,15.72091007,,0,20240712-00000,2024-07-12T11:00:00.000Z,2024-07-12T06:00:00.000Z,2024-07-12T06:00:00.000Z,1A:E8:29:91:43:80,,infra,,2,0,?,?,?,True,11,0,wpa2,PL,województwo dolnośląskie,Karkonoska,Sosnówka,55A,58-540
50.78206253,15.75158024,DWR-921E_EB9D0C,0,20240711-00000,2024-07-11T09:00:00.000Z,2024-07-11T09:00:00.000Z,2024-07-11T09:00:00.000Z,1C:5F:2B:EB:9D:0C,,infra,,2,0,?,?,?,False,4,0,wpa2,PL,województwo dolnośląskie,Myśliwska,,28,58-540
50.78274918,15.75948715,UPC-AP-1391033,0,20240711-00000,2024-07-11T09:00:00.000Z,2024-07-11T09:00:00.000Z,2024-07-11T09:00:00.000Z,1C:64:99:D2:65:2C,,infra,,2,0,?,?,?,False,11,0,wpa2,PL,województwo dolnośląskie,Kolejowa,,10,58-540
50.78272247,15.75952721,UPC-AP-1391033,2,20240711-00000,2024-07-11T09:00:00.000Z,2024-07-31T08:00:00.000Z,2024-07-31T09:00:00.000Z,1C:64:99:D2:65:30,,infra,,2,0,?,?,?,False,36,0,wpa2,PL,województwo dolnośląskie,Kolejowa,,10,58-540
50.81556702,15.67521858,Audi_MMI_1537_5GHz,0,20240705-00000,2024-07-05T11:00:00.000Z,2024-07-05T05:00:00.000Z,2024-07-05T05:00:00.000Z,22:BA:36:D0:B8:D9,,infra,,2,0,?,?,?,True,149,0,wpa2,PL,województwo dolnośląskie,Żołnierska,,72,58-562
50.79213333,15.80218315,Platan WiFi,4,20240711-00000,2024-07-11T09:00:00.000Z,2024-07-31T08:00:00.000Z,2024-07-31T09:00:00.000Z,24:5A:4C:34:16:11,,infra,,2,0,?,?,?,False,1,0,wpa2,PL,województwo dolnośląskie,Karpacka,,,58-530
50.79236603,15.80117607,platan,4,20240711-00000,2024-07-11T09:00:00.000Z,2024-07-31T08:00:00.000Z,2024-07-31T09:00:00.000Z,24:5A:4C:34:19:ED,,infra,,2,0,?,?,?,False,13,0,wpa2,PL,województwo dolnośląskie,Karpacka,,,58-530
50.77826309,15.72621059,PLAY internet 2.4GHz_AE85,2,20240711-00000,2024-07-11T09:00:00.000Z,2024-07-31T08:00:00.000Z,2024-07-31T09:00:00.000Z,24:E4:CE:69:AE:87,,infra,,2,0,?,?,?,False,5,0,wpa2,PL,województwo dolnośląskie,Karkonoska,,34A,58-540
50.80075836,15.83049583,PLAY_Swiatlowodowy_5EEA,0,20240712-00000,2024-07-12T11:00:00.000Z,2024-07-12T06:00:00.000Z,2024-07-12T06:00:00.000Z,24:E4:CE:6C:5E:EC,,infra,,2,0,?,?,?,True,6,0,wpa2,PL,województwo dolnośląskie,Zamkowa,,,58-530
50.81554794,15.67527866,Koko,2,20240703-00000,2024-07-03T08:00:00.000Z,2024-07-08T06:00:00.000Z,2024-07-08T06:00:00.000Z,26:B7:BB:74:35:E9,,infra,,2,0,?,?,?,True,11,0,wpa2,PL,województwo dolnośląskie,Żołnierska,,72,58-562
50.81565094,15.6749258,Redmi Note 13,0,20240708-00000,2024-07-08T16:00:00.000Z,2024-07-08T14:00:00.000Z,2024-07-08T15:00:00.000Z,26:BA:1B:08:DB:36,,infra,,2,0,?,?,?,True,1,0,wpa2,PL,województwo dolnośląskie,Żołnierska,,72,58-562
50.81845856,15.67970276,NETIASPOT-uRs6,0,20240712-00000,2024-07-12T12:00:00.000Z,2024-07-12T06:00:00.000Z,2024-07-12T06:00:00.000Z,28:53:4E:69:F7:A4,,infra,,2,0,?,?,?,True,4,0,wpa2,PL,województwo dolnośląskie,Żołnierska,,,58-562
50.79283142,15.77974319,rivendell,0,20240711-00000,2024-07-11T09:00:00.000Z,2024-07-11T09:00:00.000Z,2024-07-11T09:00:00.000Z,28:87:BA:A0:4A:E7,,infra,,2,0,?,?,?,False,36,0,wpa2,PL,województwo dolnośląskie,Turystyczna,Ścięgny,,58-534
50.79280472,15.77880001,rivendell,2,20240711-00000,2024-07-11T09:00:00.000Z,2024-07-12T06:00:00.000Z,2024-07-12T06:00:00.000Z,28:87:BA:A0:4A:E8,,infra,,2,0,?,?,?,False,11,0,wpa2,PL,województwo dolnośląskie,Turystyczna,Ścięgny,,58-534
50.77722549,15.7247076,DIRECT-jz,0,20240711-00000,2024-07-11T08:00:00.000Z,2024-07-11T09:00:00.000Z,2024-07-11T09:00:00.000Z,2A:24:FF:01:2B:C4,,infra,,2,0,?,?,?,False,4,0,wpa2,PL,województwo dolnośląskie,Na Śnieżkę,,3,58-540
50.81556702,15.67512608,Galaxy A32 5G4CB1,0,20240708-00000,2024-07-08T10:00:00.000Z,2024-07-08T06:00:00.000Z,2024-07-08T06:00:00.000Z,2A:55:AA:AF:BB:57,,infra,,2,0,?,?,?,True,6,0,wpa2,PL,województwo dolnośląskie,Żołnierska,,72,58-562
50.79283142,15.77974319,,0,20240711-00000,2024-07-11T09:00:00.000Z,2024-07-11T09:00:00.000Z,2024-07-11T09:00:00.000Z,2A:87:BA:A0:4A:E7,,infra,,2,0,?,?,?,False,36,0,wpa2,PL,województwo dolnośląskie,Turystyczna,Ścięgny,,58-534
50.79278564,15.77817154,,0,20240712-00000,2024-07-12T11:00:00.000Z,2024-07-12T06:00:00.000Z,2024-07-12T06:00:00.000Z,2A:87:BA:A0:4A:E8,,infra,,2,0,?,?,?,True,11,0,wpa2,PL,województwo dolnośląskie,Turystyczna,Ścięgny,,58-534
50.78136444,15.74495316,,0,20240711-00000,2024-07-11T09:00:00.000Z,2024-07-11T09:00:00.000Z,2024-07-11T09:00:00.000Z,2A:87:BA:E0:B9:E4,,infra,,2,0,?,?,?,False,2,0,wpa2,PL,województwo dolnośląskie,Myśliwska,,7,58-540
50.7939949,15.81762886,70mai_M300_3a52,0,20240712-00000,2024-07-12T11:00:00.000Z,2024-07-12T06:00:00.000Z,2024-07-12T06:00:00.000Z,2C:05:47:3E:3A:52,,infra,,2,0,?,?,?,True,6,0,wpa2,PL,województwo dolnośląskie,Karkonoska,,,58-530
50.77720642,15.72643566,Sowica_bar,2,20240711-00000,2024-07-11T08:00:00.000Z,2024-07-31T08:00:00.000Z,2024-07-31T09:00:00.000Z,2C:C8:1B:83:2E:29,,infra,,2,0,?,?,?,False,2,0,wpa2,PL,województwo dolnośląskie,Karkonoska,,25,58-540
50.79995728,15.83320427,jtbr1,0,20240712-00000,2024-07-12T11:00:00.000Z,2024-07-12T06:00:00.000Z,2024-07-12T06:00:00.000Z,2C:C8:1B:86:26:E0,,infra,,2,0,?,?,?,True,149,0,wpa2,PL,województwo dolnośląskie,Zamkowa,,2a,58-530
50.80076218,15.83245277,jp,0,20240712-00000,2024-07-12T11:00:00.000Z,2024-07-12T06:00:00.000Z,2024-07-12T06:00:00.000Z,2C:D0:2D:6A:98:F0,,infra,,2,0,?,?,?,True,11,0,wpa2,PL,województwo dolnośląskie,Zamkowa,,2a,58-530
50.78118134,15.74607277,ASUS,0,20240711-00000,2024-07-11T09:00:00.000Z,2024-07-11T09:00:00.000Z,2024-07-11T09:00:00.000Z,2C:FD:A1:CB:EA:18,,infra,,2,0,?,?,?,False,13,0,wpa2,PL,województwo dolnośląskie,Myśliwska,,16,58-540
50.79283142,15.77974319,mateusz warsztat,0,20240711-00000,2024-07-11T09:00:00.000Z,2024-07-11T09:00:00.000Z,2024-07-11T09:00:00.000Z,30:B5:C2:81:8B:02,,infra,,2,0,?,?,?,False,6,0,wpa2,PL,województwo dolnośląskie,Turystyczna,Ścięgny,,58-534
50.81550598,15.67530823,mad dog,1,20240707-00000,2024-07-07T14:00:00.000Z,2024-07-08T06:00:00.000Z,2024-07-08T06:00:00.000Z,32:E1:CE:39:76:7E,,infra,,2,0,?,?,?,True,6,0,wpa2,PL,województwo dolnośląskie,Żołnierska,,72,58-562
50.79942703,15.82741737,UPC2685180,4,20240711-00000,2024-07-11T09:00:00.000Z,2024-07-31T08:00:00.000Z,2024-07-31T09:00:00.000Z,34:2C:C4:71:1E:F0,,infra,,2,0,?,?,?,False,6,0,wpa2,PL,województwo dolnośląskie,Karkonoska,,1,58-530
50.80095291,15.83150005,Internet_Domowy_34D0A8,0,20240712-00000,2024-07-12T11:00:00.000Z,2024-07-12T06:00:00.000Z,2024-07-12T06:00:00.000Z,34:BA:9A:34:D0:A8,,infra,,2,0,?,?,?,True,3,0,wpa2,PL,województwo dolnośląskie,Zamkowa,,,58-530
50.78043747,15.73650265,Internet_Domowy_4120CE,0,20240711-00000,2024-07-11T09:00:00.000Z,2024-07-11T09:00:00.000Z,2024-07-11T09:00:00.000Z,34:BA:9A:41:20:CE,,infra,,2,0,?,?,?,False,13,0,wpa2,PL,województwo dolnośląskie,Myśliwska,,19A,58-540
50.78260803,15.75818729,UPCDAA8FAA,2,20240711-00000,2024-07-11T09:00:00.000Z,2024-07-31T08:00:00.000Z,2024-07-31T09:00:00.000Z,38:43:7D:19:79:7B,,infra,,2,0,?,?,?,False,36,0,wpa2,PL,województwo dolnośląskie,Kolejowa,,7,58-540
50.78118134,15.74607277,Karpatia-5c-9,0,20240711-00000,2024-07-11T09:00:00.000Z,2024-07-11T09:00:00.000Z,2024-07-11T09:00:00.000Z,38:EB:47:7E:67:3C,,infra,,2,0,?,?,?,False,11,0,wpa2,PL,województwo dolnośląskie,Myśliwska,,16,58-540
50.79952621,15.82766438,Orange_Swiatlowod_DA98,2,20240711-00000,2024-07-11T09:00:00.000Z,2024-07-31T08:00:00.000Z,2024-07-31T09:00:00.000Z,3C:17:10:66:DA:9D,,infra,,2,0,?,?,?,False,100,0,wpa2,PL,województwo dolnośląskie,Zamkowa,,,58-530
50.79042053,15.77830315,T-Mobile_5G_HomeOffice_2.4GHz,0,20240710-00000,2024-07-08T15:00:00.000Z,2024-07-10T09:00:00.000Z,2024-07-10T10:00:00.000Z,40:1A:58:3B:B3:4A,,infra,,3,0,?,?,?,False,3,0,wpa3,PL,województwo dolnośląskie,,Ścięgny,,58-534
50.79042053,15.77830315,T-Mobile_5G_HomeOffice_5GHz,0,20240710-00000,2024-07-08T15:00:00.000Z,2024-07-10T09:00:00.000Z,2024-07-10T10:00:00.000Z,40:1A:58:3B:B3:4B,,infra,,3,0,?,?,?,False,104,0,wpa3,PL,województwo dolnośląskie,,Ścięgny,,58-534
50.79042053,15.77830315,TCL-8RGQ-2.4GHz,0,20240710-00000,2024-07-08T15:00:00.000Z,2024-07-10T09:00:00.000Z,2024-07-10T10:00:00.000Z,40:5F:7D:54:BD:AA,,infra,,2,0,?,?,?,False,7,0,wpa2,PL,województwo dolnośląskie,,Ścięgny,,58-534
50.79042053,15.77830315,TCL-8RGQ-5GHz,0,20240710-00000,2024-07-08T15:00:00.000Z,2024-07-10T09:00:00.000Z,2024-07-10T10:00:00.000Z,40:5F:7D:75:D3:AF,,infra,,2,0,?,?,?,False,36,0,wpa2,PL,województwo dolnośląskie,,Ścięgny,,58-534
50.7779007,15.74783993,70mai_d08_e361,0,20240710-00000,2024-07-10T12:00:00.000Z,2024-07-10T09:00:00.000Z,2024-07-10T10:00:00.000Z,40:80:E1:94:E3:61,,infra,,2,0,?,?,?,False,6,0,wpa2,PL,województwo dolnośląskie,Rybacka,,,58-540
50.81561661,15.67512703,Car-cx7053-06a5,0,20240704-00000,2024-07-04T12:00:00.000Z,2024-07-04T18:00:00.000Z,2024-07-04T18:00:00.000Z,40:9C:A7:A3:06:A5,,infra,,2,0,?,?,?,True,3,0,wpa2,PL,województwo dolnośląskie,Żołnierska,,72,58-562
50.81552887,15.67488098,TCL-FA16-2.4GHz_EXT,0,20240712-00000,2024-07-12T12:00:00.000Z,2024-07-12T06:00:00.000Z,2024-07-12T06:00:00.000Z,40:ED:00:DD:E3:05,,infra,,2,0,?,?,?,True,7,0,wpa2,PL,województwo dolnośląskie,Żołnierska,,72,58-562
50.81546402,15.67484283,Xblitz Tango 4K_42190014,0,20240705-00000,2024-07-05T08:00:00.000Z,2024-07-05T05:00:00.000Z,2024-07-05T05:00:00.000Z,40:F0:DA:7D:FE:04,,infra,,2,0,?,?,?,True,6,0,wpa2,PL,województwo dolnośląskie,Żołnierska,,72,58-562
50.81553268,15.67516232,HUAWEI nova 8i,4,20240703-00000,2024-07-03T10:00:00.000Z,2024-07-08T06:00:00.000Z,2024-07-08T06:00:00.000Z,42:7A:11:C4:4B:A2,,infra,,2,0,?,?,?,True,6,0,wpa2,PL,województwo dolnośląskie,Żołnierska,,72,58-562
50.783741,15.72296715,Orange_Swiatlowod_C420,2,20240712-00000,2024-07-12T11:00:00.000Z,2024-07-31T08:00:00.000Z,2024-07-31T09:00:00.000Z,44:05:3F:C2:C4:24,,infra,,2,0,?,?,?,True,11,0,wpa2,PL,województwo dolnośląskie,Karkonoska,,51,58-540
50.78009033,15.77744007,T-Mobile_Swiatlowod_8253,0,20240710-00000,2024-07-08T15:00:00.000Z,2024-07-10T09:00:00.000Z,2024-07-10T10:00:00.000Z,44:05:3F:C7:EB:A4,,infra,,3,0,?,?,?,False,100,0,wpa3,PL,województwo dolnośląskie,Władysława Sikorskiego,,189,58-540
50.8155899,15.67510509,70mai_A500_900d,0,20240712-00000,2024-07-09T10:00:00.000Z,2024-07-12T06:00:00.000Z,2024-07-12T06:00:00.000Z,44:27:F3:18:90:0D,,infra,,2,0,?,?,?,True,6,0,wpa2,PL,województwo dolnośląskie,Żołnierska,,72,58-562
50.8156929,15.67514133,70mai_Pro Plus+_5b8c,1,20240708-00000,2024-07-08T18:00:00.000Z,2024-07-12T06:00:00.000Z,2024-07-12T06:00:00.000Z,44:27:F3:7A:5B:8C,,infra,,2,0,?,?,?,True,1,0,wpa2,PL,województwo dolnośląskie,Żołnierska,,72,58-562
50.80075836,15.83049583,70mai_Pro Plus+_642a,0,20240712-00000,2024-07-12T11:00:00.000Z,2024-07-12T06:00:00.000Z,2024-07-12T06:00:00.000Z,44:27:F3:7F:64:2A,,infra,,2,0,?,?,?,True,11,0,wpa2,PL,województwo dolnośląskie,Zamkowa,,,58-530
50.8045845,15.76646996,70mai_A510_6139,0,20240710-00000,2024-07-08T15:00:00.000Z,2024-07-10T09:00:00.000Z,2024-07-10T10:00:00.000Z,44:27:F3:91:61:39,,infra,,2,0,?,?,?,False,6,0,wpa2,PL,województwo dolnośląskie,Rondo Ratowników Górskich,Miłków,,58-535
50.79121017,15.80570507,HUAWEI-B535-24F9,2,20240712-00000,2024-07-12T11:00:00.000Z,2024-07-31T08:00:00.000Z,2024-07-31T09:00:00.000Z,44:55:C4:37:24:FE,,infra,,2,0,?,?,?,True,36,0,wpa2,PL,województwo dolnośląskie,Karpacka,,1,58-530
50.79108047,15.80611992,,0,20240712-00000,2024-07-12T11:00:00.000Z,2024-07-12T06:00:00.000Z,2024-07-12T06:00:00.000Z,44:55:C4:37:25:00,,infra,,2,0,?,?,?,True,36,0,wpa2,PL,województwo dolnośląskie,Karpacka,,1,58-530
50.79262543,15.78174782,FunBox2-0C4E,2,20240711-00000,2024-07-11T09:00:00.000Z,2024-07-31T08:00:00.000Z,2024-07-31T09:00:00.000Z,44:AD:B1:8B:0C:4E,,infra,,2,0,?,?,?,False,1,0,wpa2,PL,województwo dolnośląskie,Turystyczna,Ścięgny,,58-534
50.79269409,15.78098583,FunBox2-0C4E_5GHz,4,20240711-00000,2024-07-11T09:00:00.000Z,2024-07-31T08:00:00.000Z,2024-07-31T09:00:00.000Z,44:AD:B1:8B:0C:4F,,infra,,2,0,?,?,?,False,100,0,wpa2,PL,województwo dolnośląskie,,Ścięgny,82,58-534
50.79275131,15.77737522,FunBox2-Kris,4,20240710-00000,2024-07-08T15:00:00.000Z,2024-07-31T08:00:00.000Z,2024-07-31T09:00:00.000Z,44:AD:B1:FC:3E:49,,infra,,2,0,?,?,?,False,1,0,wpa2,PL,województwo dolnośląskie,Turystyczna,Ścięgny,1,58-534
50.82833481,15.72181702,AndroidAuto_5008,0,20240712-00000,2024-07-12T11:00:00.000Z,2024-07-12T06:00:00.000Z,2024-07-12T06:00:00.000Z,44:EB:2E:04:50:08,,infra,,2,0,?,?,?,True,149,0,wpa2,PL,województwo dolnośląskie,Tyrolska,Sosnówka,,58-564
50.79160309,15.80435085,Hyundai_kpCQ,0,20240712-00000,2024-07-12T11:00:00.000Z,2024-07-12T06:00:00.000Z,2024-07-12T06:00:00.000Z,48:7A:FF:9C:B7:64,,infra,,2,0,?,?,?,True,149,0,wpa2,PL,województwo dolnośląskie,Karpacka,,3,58-530
50.77855682,15.72564316,smartBox-5331,0,20240711-00000,2024-07-11T09:00:00.000Z,2024-07-11T09:00:00.000Z,2024-07-11T09:00:00.000Z,48:8F:4C:77:F5:29,,infra,,2,0,?,?,?,False,149,0,wpa2,PL,województwo dolnośląskie,Na Śnieżkę,,2,58-540
50.80466843,15.7049017,Hotel Seidorf,2,20240712-00000,2024-07-12T11:00:00.000Z,2024-07-31T08:00:00.000Z,2024-07-31T09:00:00.000Z,48:8F:5A:2C:13:1C,,infra,,2,0,?,?,?,True,1,0,wpa2,PL,województwo dolnośląskie,Muflonowa,,,58-564
50.79132462,15.7750988,Dom,0,20240711-00000,2024-07-11T09:00:00.000Z,2024-07-11T09:00:00.000Z,2024-07-11T09:00:00.000Z,48:A9:8A:51:52:24,,infra,,2,0,?,?,?,False,9,0,wpa2,PL,województwo dolnośląskie,Turystyczna,Ścięgny,,58-534
50.78157043,15.74304771,DIRECT-68-HP M227f LaserJet,0,20240711-00000,2024-07-11T09:00:00.000Z,2024-07-11T09:00:00.000Z,2024-07-11T09:00:00.000Z,4A:5F:99:10:97:68,,infra,,2,0,?,?,?,False,6,0,wpa2,PL,województwo dolnośląskie,Myśliwska,,22,58-540
50.80466843,15.70490265,Biznes Hotel Seidorf,2,20240712-00000,2024-07-12T11:00:00.000Z,2024-07-31T08:00:00.000Z,2024-07-31T09:00:00.000Z,4A:8F:5A:2C:13:1D,,infra,,2,0,?,?,?,True,1,0,wpa2,PL,województwo dolnośląskie,Muflonowa,,,58-564
50.79308319,15.77785873,U_ZOSI,2,20240710-00000,2024-07-08T15:00:00.000Z,2024-07-31T08:00:00.000Z,2024-07-31T09:00:00.000Z,4C:50:77:B8:9B:46,,infra,,2,0,?,?,?,False,1,0,wpa2,PL,województwo dolnośląskie,366,Ścięgny,,58-534
50.79306412,15.77784729,U_ZOSI,4,20240710-00000,2024-07-08T15:00:00.000Z,2024-07-31T08:00:00.000Z,2024-07-31T09:00:00.000Z,4C:50:77:B8:9B:4B,,infra,,2,0,?,?,?,False,36,0,wpa2,PL,województwo dolnośląskie,366,Ścięgny,,58-534
50.79310226,15.77787304,,2,20240710-00000,2024-07-08T15:00:00.000Z,2024-07-31T08:00:00.000Z,2024-07-31T09:00:00.000Z,4C:50:77:B8:9B:4D,,infra,,2,0,?,?,?,False,36,0,wpa2,PL,województwo dolnośląskie,366,Ścięgny,,58-534
50.79221725,15.80185318,Dolnet_KR2,4,20240711-00000,2024-07-11T09:00:00.000Z,2024-07-31T08:00:00.000Z,2024-07-31T09:00:00.000Z,4E:5E:0C:D6:D4:B1,,infra,,?,0,?,?,?,False,140,0,unknown,PL,województwo dolnośląskie,Karpacka,,,58-530
50.78978348,15.77294827,c63c3d4d,0,20240712-00000,2024-07-12T11:00:00.000Z,2024-07-12T06:00:00.000Z,2024-07-12T06:00:00.000Z,50:2C:C6:3C:3D:4D,,infra,,2,0,?,?,?,True,1,0,wpa2,PL,województwo dolnośląskie,Turystyczna,Ścięgny,,58-534
50.78978348,15.77294827,c63c3e46,0,20240712-00000,2024-07-12T11:00:00.000Z,2024-07-12T06:00:00.000Z,2024-07-12T06:00:00.000Z,50:2C:C6:3C:3E:46,,infra,,2,0,?,?,?,True,1,0,wpa2,PL,województwo dolnośląskie,Turystyczna,Ścięgny,,58-534
50.78675461,15.72118282,Orange_Swiatlowod_9560,2,20240712-00000,2024-07-12T11:00:00.000Z,2024-07-31T08:00:00.000Z,2024-07-31T09:00:00.000Z,50:6F:0C:4B:95:60,,infra,,2,0,?,?,?,True,100,0,wpa2,PL,województwo dolnośląskie,Karkonoska,Sosnówka,55A,58-540
50.81676102,15.67731857,TauronRedmi,0,20240712-00000,2024-07-12T10:00:00.000Z,2024-07-12T06:00:00.000Z,2024-07-12T06:00:00.000Z,52:A3:9E:D8:94:F9,,infra,,2,0,?,?,?,True,1,0,wpa2,PL,województwo dolnośląskie,Żołnierska,,61,58-562
50.81560516,15.67525005,Galaxy XCover 5E22E,0,20240705-00000,2024-07-05T10:00:00.000Z,2024-07-05T05:00:00.000Z,2024-07-05T05:00:00.000Z,52:F5:F3:82:FB:CA,,infra,,2,0,?,?,?,True,11,0,wpa2,PL,województwo dolnośląskie,Żołnierska,,72,58-562
50.79791641,15.77681637,ZTE_6D4E68,2,20240710-00000,2024-07-08T15:00:00.000Z,2024-07-31T08:00:00.000Z,2024-07-31T09:00:00.000Z,54:1F:8D:6D:4E:68,,infra,,2,0,?,?,?,False,11,0,wpa2,PL,województwo dolnośląskie,366,Ścięgny,,58-534
50.797966,15.77679825,ZTE_6D4E68,2,20240710-00000,2024-07-08T15:00:00.000Z,2024-07-31T08:00:00.000Z,2024-07-31T09:00:00.000Z,54:1F:8D:6F:4E:68,,infra,,2,0,?,?,?,False,36,0,wpa2,PL,województwo dolnośląskie,366,Ścięgny,,58-534
50.79831696,15.82419586,Limonka.pl,0,20240712-00000,2024-07-12T11:00:00.000Z,2024-07-12T06:00:00.000Z,2024-07-12T06:00:00.000Z,54:DB:A2:FD:CF:11,,infra,,2,0,?,?,?,True,6,0,wpa2,PL,województwo dolnośląskie,Karkonoska,,,58-530
50.80091476,15.83116245,Limonka-2.4G-0a19ef,2,20240711-00000,2024-07-11T09:00:00.000Z,2024-07-12T06:00:00.000Z,2024-07-12T06:00:00.000Z,54:DB:A2:FE:91:A4,,infra,,2,0,?,?,?,False,11,0,wpa2,PL,województwo dolnośląskie,Zamkowa,,,58-530
